[{"OBJECT_NAME":"SHIYAN-6 01 (SY-6 01)","OBJECT_ID":"2018-094B","EPOCH":"2026-03-09T23:04:36.967872","MEAN_MOTION":15.28649156,"ECCENTRICITY":0.00144834,"INCLINATION":97.3669,"RA_OF_ASC_NODE":84.0964,"ARG_OF_PERICENTER":135.6758,"MEAN_ANOMALY":224.5644,"EPHEMERIS_TYPE":0,"CLASSIFICATION_TYPE":"U","NORAD_CAT_ID":43711,"ELEMENT_SET_NO":999,"REV_AT_EPOCH":40632,"BSTAR":0.00024768444,"MEAN_MOTION_DOT":6.847e-5,"MEAN_MOTION_DDOT":0},{"OBJECT_NAME":"STARLINK-31876","OBJECT_ID":"2024-106S","EPOCH":"2026-03-08T02:51:52.494048","MEAN_MOTION":15.27583006,"ECCENTRICITY":7.171e-5,"INCLINATION":43.0018,"RA_OF_ASC_NODE":341.3059,"ARG_OF_PERICENTER":275.318,"MEAN_ANOMALY":84.759,"EPHEMERIS_TYPE":0,"CLASSIFICATION_TYPE":"U","NORAD_CAT_ID":59938,"ELEMENT_SET_NO":999,"REV_AT_EPOCH":10029,"BSTAR":0.00020707775,"MEAN_MOTION_DOT":5.441e-5,"MEAN_MOTION_DDOT":0}]
